H1 CPF 01  gfz 2021 01 03 01  5031 tandemx   
H2 1003001  6202 36605    2021 01 03 00 59 42 2021 01 08 00 00 42   120 1 1  0 0 0
H9
10 0 59221   5742.000000  0    -621222.415  -3376447.142  -5979548.369
10 0 59221   5862.000000  0   -1021524.874  -4043597.843  -5490264.126
10 0 59221   5982.000000  0   -1415094.747  -4633609.150  -4904995.349
10 0 59221   6102.000000  0   -1793635.556  -5136344.516  -4233884.445
10 0 59221   6222.000000  0   -2148933.034  -5543303.887  -3488595.006
10 0 59221   6342.000000  0   -2473030.041  -5847777.302  -2682117.322
10 0 59221   6462.000000  0   -2758401.251  -6044966.642  -1828547.596
10 0 59221   6582.000000  0   -2998123.872  -6132072.601   -942843.268
10 0 59221   6702.000000  0   -3186039.938  -6108342.858    -40557.764
10 0 59221   6822.000000  0   -3316905.012  -5975078.527    862439.113
10 0 59221   6942.000000  0   -3386519.719  -5735599.342   1750248.559
10 0 59221   7062.000000  0   -3391840.573  -5395167.537   2607232.210
10 0 59221   7182.000000  0   -3331066.845  -4960872.297   3418295.977
10 0 59221   7302.000000  0   -3203701.540  -4441478.931   4169162.530
10 0 59221   7422.000000  0   -3010585.259  -3847246.027   4846627.002
10 0 59221   7542.000000  0   -2753902.546  -3189715.125   5438790.249
10 0 59221   7662.000000  0   -2437159.999  -2481479.209   5935265.901
10 0 59221   7782.000000  0   -2065137.510  -1735936.178   6327358.102
10 0 59221   7902.000000  0   -1643813.821   -967031.609   6608209.831
10 0 59221   8022.000000  0   -1180266.898   -188993.596   6772916.672
10 0 59221   8142.000000  0    -682553.992    583930.717   6818604.694
10 0 59221   8262.000000  0    -159571.953   1337734.778   6744478.271
10 0 59221   8382.000000  0     379101.761   2058906.305   6551833.436
10 0 59221   8502.000000  0     923384.317   2734669.537   6244036.212
10 0 59221   8622.000000  0    1462875.366   3353211.550   5826467.184
10 0 59221   8742.000000  0    1987054.805   3903891.348   5306433.255
10 0 59221   8862.000000  0    2485488.090   4377427.799   4693046.153
10 0 59221   8982.000000  0    2948035.653   4766061.990   3997067.393
10 0 59221   9102.000000  0    3365059.681   5063689.626   3230723.479
10 0 59221   9222.000000  0    3727627.545   5265965.269   2407494.834
10 0 59221   9342.000000  0    4027706.316   5370370.743   1541873.819
10 0 59221   9462.000000  0    4258338.500   5376244.591    649105.512
10 0 59221   9582.000000  0    4413799.922   5284777.650   -255088.670
10 0 59221   9702.000000  0    4489732.520   5098966.763  -1154797.139
10 0 59221   9822.000000  0    4483250.930   4823533.381  -2034205.616
10 0 59221   9942.000000  0    4393018.783   4464808.531  -2877882.249
10 0 59221  10062.000000  0    4219293.289   4030587.002  -3671053.928
10 0 59221  10182.000000  0    3963936.326   3529953.879  -4399866.834
10 0 59221  10302.000000  0    3630394.620   2973089.558  -5051625.719
10 0 59221  10422.000000  0    3223648.966   2371058.180  -5615009.788
10 0 59221  10542.000000  0    2750133.717   1735584.358  -6080260.822
10 0 59221  10662.000000  0    2217629.542   1078822.988  -6439341.236
10 0 59221  10782.000000  0    1635131.859    413127.832  -6686060.414
10 0 59221  10902.000000  0    1012699.216   -249176.833  -6816171.095
10 0 59221  11022.000000  0     361280.485   -896020.143  -6827435.965
10 0 59221  11142.000000  0    -307474.585  -1515799.363  -6719659.998
10 0 59221  11262.000000  0    -981417.747  -2097581.679  -6494693.390
10 0 59221  11382.000000  0   -1648117.719  -2631293.188  -6156404.544
10 0 59221  11502.000000  0   -2295084.180  -3107891.445  -5710620.123
10 0 59221  11622.000000  0   -2909997.137  -3519518.554  -5165035.465
10 0 59221  11742.000000  0   -3480940.612  -3859634.475  -4529094.299
10 0 59221  11862.000000  0   -3996635.079  -4123126.049  -3813835.736
10 0 59221  11982.000000  0   -4446663.202  -4306389.375  -3031712.154
10 0 59221  12102.000000  0   -4821685.285  -4407384.083  -2196379.027
10 0 59221  12222.000000  0   -5113638.445  -4425656.836  -1322459.245
10 0 59221  12342.000000  0   -5315914.482  -4362333.308   -425286.363
10 0 59221  12462.000000  0   -5423511.845  -4220078.456    479368.541
10 0 59221  12582.000000  0   -5433157.120  -4003025.534   1375581.896
10 0 59221  12702.000000  0   -5343391.335  -3716674.087   2247567.876
10 0 59221  12822.000000  0   -5154619.102  -3367759.748   3079965.538
10 0 59221  12942.000000  0   -4869119.936  -2964100.436   3858116.865
10 0 59221  13062.000000  0   -4491021.592  -2514422.291   4568330.958
10 0 59221  13182.000000  0   -4026235.202  -2028169.464   5198127.068
10 0 59221  13302.000000  0   -3482356.739  -1515304.548   5736451.887
10 0 59221  13422.000000  0   -2868537.172   -986103.628   6173871.012
10 0 59221  13542.000000  0   -2195321.753   -450948.522   6502730.768
10 0 59221  13662.000000  0   -1474462.375     79878.404   6717285.412
10 0 59221  13782.000000  0    -718709.149    596390.327   6813790.293
10 0 59221  13902.000000  0      58415.582   1089082.510   6790563.167
10 0 59221  14022.000000  0     842858.699   1549106.717   6648011.754
10 0 59221  14142.000000  0    1620289.892   1968430.400   6388626.910
10 0 59221  14262.000000  0    2376362.601   2339976.930   6016941.155
10 0 59221  14382.000000  0    3096978.685   2657745.860   5539455.078
10 0 59221  14502.000000  0    3768554.220   2916911.932   4964529.999
10 0 59221  14622.000000  0    4378278.982   3113900.443   4302246.441
10 0 59221  14742.000000  0    4914365.407   3246437.257   3564233.375
10 0 59221  14862.000000  0    5366286.424   3313573.458   2763466.786
10 0 59221  14982.000000  0    5724988.789   3315680.375   1914039.217
10 0 59221  15102.000000  0    5983080.375   3254418.958   1030909.036
10 0 59221  15222.000000  0    6134987.190   3132681.993    129630.137
10 0 59221  15342.000000  0    6177073.712   2954509.745   -773930.952
10 0 59221  15462.000000  0    6107724.207   2724981.163  -1663883.110
10 0 59221  15582.000000  0    5927383.069   2450085.952  -2524597.029
10 0 59221  15702.000000  0    5638554.762   2136580.043  -3340986.172
10 0 59221  15822.000000  0    5245762.444   1791826.457  -4098774.603
10 0 59221  15942.000000  0    4755467.119   1423626.734  -4784747.237
10 0 59221  16062.000000  0    4175948.772   1040047.774  -5386975.405
10 0 59221  16182.000000  0    3517156.511    649249.070  -5895015.734
10 0 59221  16302.000000  0    2790529.560    259313.092  -6300081.579
10 0 59221  16422.000000  0    2008792.730   -121917.511  -6595183.284
10 0 59221  16542.000000  0    1185732.781   -486992.988  -6775237.508
10 0 59221  16662.000000  0     335957.193   -828997.992  -6837146.929
10 0 59221  16782.000000  0    -525361.604  -1141678.488  -6779846.413
10 0 59221  16902.000000  0   -1382749.874  -1419552.552  -6604318.999
10 0 59221  17022.000000  0   -2220704.225  -1658004.412  -6313581.678
10 0 59221  17142.000000  0   -3023965.797  -1853359.942  -5912638.212
10 0 59221  17262.000000  0   -3777792.513  -2002942.856  -5408402.736
10 0 59221  17382.000000  0   -4468229.681  -2105111.651  -4809593.002
10 0 59221  17502.000000  0   -5082371.667  -2159275.082  -4126590.705
10 0 59221  17622.000000  0   -5608609.351  -2165886.259  -3371272.169
10 0 59221  17742.000000  0   -6036859.204  -2126415.079  -2556809.635
10 0 59221  17862.000000  0   -6358767.174  -2043298.717  -1697445.758
10 0 59221  17982.000000  0   -6567882.880  -1919871.330   -808245.337
10 0 59221  18102.000000  0   -6659798.603  -1760274.228     95171.995
10 0 59221  18222.000000  0   -6632249.308  -1569348.290    996912.488
10 0 59221  18342.000000  0   -6485169.680  -1352511.028   1881096.634
10 0 59221  18462.000000  0   -6220706.401  -1115622.135   2732148.161
10 0 59221  18582.000000  0   -5843185.698   -864840.670   3535076.865
10 0 59221  18702.000000  0   -5359037.119   -606476.915   4275750.213
10 0 59221  18822.000000  0   -4776673.608   -346843.811   4941145.793
10 0 59221  18942.000000  0   -4106335.710    -92111.524   5519579.349
10 0 59221  19062.000000  0   -3359902.925    151832.129   6000908.227
10 0 59221  19182.000000  0   -2550673.914    379511.774   6376705.140
10 0 59221  19302.000000  0   -1693122.697    585981.772   6640399.726
10 0 59221  19422.000000  0    -802635.021    766929.409   6787387.763
10 0 59221  19542.000000  0     104769.475    918762.440   6815105.582
10 0 59221  19662.000000  0    1012724.879   1038678.842   6723071.443
10 0 59221  19782.000000  0    1904813.075   1124718.559   6512893.497
10 0 59221  19902.000000  0    2764859.692   1175795.743   6188243.404
10 0 59221  20022.000000  0    3577227.951   1191711.021   5754796.945
10 0 59221  20142.000000  0    4327105.873   1173143.755   5220139.463
10 0 59221  20262.000000  0    5000779.718   1121624.550   4593639.471
10 0 59221  20382.000000  0    5585893.131   1039488.450   3886291.663
10 0 59221  20502.000000  0    6071684.263    929809.885   3110526.331
10 0 59221  20622.000000  0    6449192.747    796319.954   2279990.386
10 0 59221  20742.000000  0    6711434.226    643308.056   1409306.166
10 0 59221  20862.000000  0    6853538.105    475510.832    513808.126
10 0 59221  20982.000000  0    6872842.806    297990.180   -390734.273
10 0 59221  21102.000000  0    6768947.228    116003.834  -1288403.780
10 0 59221  21222.000000  0    6543715.473    -65127.762  -2163424.300
10 0 59221  21342.000000  0    6201236.069   -240155.550  -3000445.009
10 0 59221  21462.000000  0    5747738.040   -404033.191  -3784814.101
10 0 59221  21582.000000  0    5191465.296   -552042.026  -4502836.814
10 0 59221  21702.000000  0    4542513.235   -679906.165  -5142011.475
10 0 59221  21822.000000  0    3812634.323   -783895.655  -5691240.211
10 0 59221  21942.000000  0    3015016.311   -860916.777  -6141013.024
10 0 59221  22062.000000  0    2164037.244   -908586.468  -6483561.633
10 0 59221  22182.000000  0    1275003.972   -925288.968  -6712981.694
99
